COSMOS 2419 (714)       
1 28915U 05050A   16218.95782303 -.00000026  00000-0  00000+0 0  9998
2 28915  65.3437  76.4849 0015804 356.4370 165.2711  2.13110950 82611
COSMOS 2425 (716)       
1 29670U 06062A   16218.79705382 -.00000050  00000-0  10000-3 0  9997
2 29670  65.6113 315.4872 0019682 345.6803 109.2101  2.13104983 74818
COSMOS 2426 (717)       
1 29671U 06062B   16219.41099076 -.00000051  00000-0  10000-3 0  9995
2 29671  65.6280 315.5511 0018773 165.0347 261.3938  2.13102943 74836
COSMOS 2424 (715)       
1 29672U 06062C   16219.54280999 -.00000052  00000-0  10000-3 0  9997
2 29672  65.6132 315.4729 0018223 164.0744 179.6862  2.13102376 74829
COSMOS 2433 (720)       
1 32275U 07052A   16219.09097161 -.00000027  00000-0  10000-3 0  9999
2 32275  65.3595  76.2518 0000990 280.1016 232.3349  2.13104776 68336
COSMOS 2432 (719)       
1 32276U 07052B   16219.15835382 -.00000027  00000-0  10000-3 0  9992
2 32276  65.3713  76.3150 0011591 345.6275 172.2192  2.13104225 68332
COSMOS 2434 (721)       
1 32393U 07065A   16219.13485441 -.00000051  00000-0  00000+0 0  9993
2 32393  65.2283 314.7764 0005094 126.3848 311.3821  2.13102895 67047
COSMOS 2436 (723)       
1 32395U 07065C   16218.76207920 -.00000050  00000-0  10000-3 0  9991
2 32395  65.2415 314.8314 0015264 354.3630 249.4475  2.13102930 66966
COSMOS 2443 (725)       
1 33379U 08046B   16218.33775515 -.00000023  00000-0  10000-3 0  9997
2 33379  65.2874  75.6890 0016773 180.7897  18.2737  2.13101044 61188
COSMOS 2456 (730)       
1 36111U 09070A   16219.43903179  .00000040  00000-0  00000+0 0  9996
2 36111  64.1833 194.3437 0006436 296.7687 184.1293  2.13102938 51715
COSMOS 2457 (733)       
1 36112U 09070B   16218.65505166  .00000031  00000-0  00000-0 0  9995
2 36112  64.1654 194.2965 0006785 189.8060 179.6658  2.13101652 51701
COSMOS 2458 (734)       
1 36113U 09070C   16218.60046228  .00000031  00000-0  10000-3 0  9994
2 36113  64.1710 194.3038 0002706 292.1988  82.9886  2.13101931 51702
COSMOS 2459 (731)       
1 36400U 10007A   16219.27151988 -.00000029  00000-0  10000-3 0  9997
2 36400  65.2673  75.3905 0028448 356.3086 159.5682  2.13102356 50060
COSMOS 2461 (735)       
1 36401U 10007B   16218.71476900 -.00000026  00000-0  10000-3 0  9997
2 36401  65.2606  75.3900 0008044  69.9252 289.4190  2.13102456 50040
COSMOS 2460 (732)       
1 36402U 10007C   16219.14794632 -.00000028  00000-0  10000-3 0  9993
2 36402  65.2513  75.3514 0001809  69.7438 303.6850  2.13101927 50061
COSMOS 2465 (737)       
1 37138U 10041B   16219.44386483 -.00000052  00000-0  00000+0 0  9994
2 37138  64.8279 314.9126 0036732 170.6990 187.3185  2.13093794 46134
COSMOS 2464 (736)       
1 37139U 10041C   16218.77758914 -.00000051  00000-0  00000+0 0  9991
2 37139  64.8360 314.9325 0021212  14.2802  17.1039  2.13102642 46130
COSMOS 2471 (701K)      
1 37372U 11009A   16219.39058416 -.00000029  00000-0  00000+0 0  9999
2 37372  65.2489  75.2915 0006639 230.7852 101.5386  2.13102798 42337
COSMOS 2474 (742)       
1 37829U 11055A   16219.37686631  .00000040  00000-0  00000+0 0  9993
2 37829  64.5083 194.7794 0010763 254.3480  40.0549  2.13101921 37700
COSMOS 2476 (744)       
1 37867U 11064A   16219.30516954  .00000039  00000-0  00000+0 0  9996
2 37867  64.4885 194.8615 0019671 248.4841  36.7714  2.13102005 37054
COSMOS 2477 (745)       
1 37868U 11064B   16219.14694825  .00000037  00000-0  00000+0 0  9991
2 37868  64.4962 194.9085 0017687 249.9210  93.2302  2.13101893 37004
COSMOS 2475 (743)       
1 37869U 11064C   16219.45901564  .00000041  00000-0  00000+0 0  9992
2 37869  64.5039 194.8858 0023015 273.4947 265.2253  2.13102128 37029
COSMOS 2485 (747)       
1 39155U 13019A   16219.45061182  .00000041  00000-0  00000+0 0  9997
2 39155  64.6575 194.8176 0019905 243.6051 198.3443  2.13102058 25538
COSMOS 2492 (754)       
1 39620U 14012A   16218.74829234 -.00000026  00000-0  10000-3 0  9998
2 39620  65.1387  75.3456 0014987 339.1896 317.3340  2.13103513 18469
COSMOS 2500 (755)       
1 40001U 14032A   16218.29250965 -.00000024  00000-0  00000+0 0  9997
2 40001  65.0791  75.3825 0004962 191.8309 338.7007  2.13103007 16672
COSMOS 2501 (702K)      
1 40315U 14075A   16219.33717602 -.00000054  00000-0  00000+0 0  9997
2 40315  64.5997 316.3551 0018000 231.1565 181.7987  2.13101701 13103
COSMOS 2514 (751)       
1 41330U 16008A   16218.75330160 -.00000027  00000-0  00000+0 0  9998
2 41330  64.8798  75.5899 0007798 208.2806 134.9158  2.13103573  3846
COSMOS 2516 (753)       
1 41554U 16032A   16219.16011837 -.00000053  00000-0  00000+0 0  9995
2 41554  64.7804 316.0486 0012338 217.7260 332.1244  2.13101523  1468
